GLOBALSTAR M057         
1 25943U 99058A   25090.58784603 -.00000082  00000+0  10317-3 0  9996
2 25943  51.9974 208.4292 0002758 202.9977 157.0749 12.24816011157423
GLOBALSTAR M059         
1 25944U 99058B   25090.48043647 -.00000083  00000+0  38412-4 0  9990
2 25944  52.0024  57.3907 0000491 133.2986  23.4267 11.99975394564710
GLOBALSTAR M056         
1 25945U 99058C   25090.84377345 -.00000143  00000+0 -65305-3 0  9994
2 25945  51.9967  60.3516 0001217  33.5766 356.9089 12.04778426153343
GLOBALSTAR M031         
1 25946U 99058D   25090.88929205 -.00000164  00000+0 -74996-3 0  9996
2 25946  51.9982 317.1937 0001881  45.6196 329.0185 12.16033527155382
GLOBALSTAR M039         
1 25961U 99062A   25090.48905989 -.00000069  00000+0  19243-3 0  9994
2 25961  51.9830 145.3701 0003013 170.1980 189.8946 12.62321904170402
GLOBALSTAR M034         
1 25962U 99062B   25090.57978867 -.00000069  00000+0  19105-3 0  9997
2 25962  51.9862 213.1217 0013724 251.7732 193.6980 11.79446075129235
GLOBALSTAR M029         
1 25963U 99062C   25090.32108225 -.00000044  00000+0  52045-3 0  9997
2 25963  51.9811 305.9320 0002181 343.6423 187.4174 11.99893939159773
GLOBALSTAR M061         
1 25964U 99062D   25090.25794462 -.00000081  00000+0 -82657-5 0  9990
2 25964  51.9817  36.9560 0005803 175.1296 354.4185 11.76772316112000
